[{"OBJECT_NAME":"STARLINK-4128","OBJECT_ID":"2022-086H","EPOCH":"2026-03-09T15:27:51.310368","MEAN_MOTION":15.08839062,"ECCENTRICITY":0.0001012,"INCLINATION":53.2157,"RA_OF_ASC_NODE":194.3315,"ARG_OF_PERICENTER":82.8446,"MEAN_ANOMALY":277.2661,"EPHEMERIS_TYPE":0,"CLASSIFICATION_TYPE":"U","NORAD_CAT_ID":53249,"ELEMENT_SET_NO":999,"REV_AT_EPOCH":20107,"BSTAR":1.2875e-5,"MEAN_MOTION_DOT":-8.3e-7,"MEAN_MOTION_DDOT":0},{"OBJECT_NAME":"RAPIDEYE 1","OBJECT_ID":"2008-040C","EPOCH":"2026-03-09T15:08:44.758176","MEAN_MOTION":15.03049091,"ECCENTRICITY":0.0028174,"INCLINATION":97.4223,"RA_OF_ASC_NODE":100.7722,"ARG_OF_PERICENTER":157.1968,"MEAN_ANOMALY":203.0516,"EPHEMERIS_TYPE":0,"CLASSIFICATION_TYPE":"U","NORAD_CAT_ID":33314,"ELEMENT_SET_NO":999,"REV_AT_EPOCH":95070,"BSTAR":0.00023277,"MEAN_MOTION_DOT":3.104e-5,"MEAN_MOTION_DDOT":0}]
